STARLINK-35138
1 65420U 25192S   26060.89405565  .00032551  00000+0  86635-3 0  9998
2 65420  53.1596 269.0650 0000876 111.6211 248.4887 15.37941309 28182
